[{"OBJECT_NAME":"SL-8 R/B","OBJECT_ID":"1988-053B","EPOCH":"2026-04-20T20:33:43.181856","MEAN_MOTION":14.389397,"ECCENTRICITY":0.00207951,"INCLINATION":74.0492,"RA_OF_ASC_NODE":34.7363,"ARG_OF_PERICENTER":207.5329,"MEAN_ANOMALY":208.8473,"EPHEMERIS_TYPE":0,"CLASSIFICATION_TYPE":"U","NORAD_CAT_ID":19257,"ELEMENT_SET_NO":999,"REV_AT_EPOCH":98266,"BSTAR":5.0041673e-5,"MEAN_MOTION_DOT":1.28e-6,"MEAN_MOTION_DDOT":0},{"OBJECT_NAME":"COSMOS 1975","OBJECT_ID":"1988-093A","EPOCH":"2026-04-20T21:19:41.391264","MEAN_MOTION":15.28591777,"ECCENTRICITY":0.00123301,"INCLINATION":82.5186,"RA_OF_ASC_NODE":75.2946,"ARG_OF_PERICENTER":31.6295,"MEAN_ANOMALY":328.5683,"EPHEMERIS_TYPE":0,"CLASSIFICATION_TYPE":"U","NORAD_CAT_ID":19573,"ELEMENT_SET_NO":999,"REV_AT_EPOCH":2585,"BSTAR":0.00016456932,"MEAN_MOTION_DOT":4.619e-5,"MEAN_MOTION_DDOT":0},{"OBJECT_NAME":"SL-14 R/B","OBJECT_ID":"1988-093B","EPOCH":"2026-04-20T22:46:39.343008","MEAN_MOTION":14.85700219,"ECCENTRICITY":0.00191155,"INCLINATION":82.5338,"RA_OF_ASC_NODE":2.3842,"ARG_OF_PERICENTER":257.5783,"MEAN_ANOMALY":112.6402,"EPHEMERIS_TYPE":0,"CLASSIFICATION_TYPE":"U","NORAD_CAT_ID":19574,"ELEMENT_SET_NO":999,"REV_AT_EPOCH":729,"BSTAR":2.9310385e-5,"MEAN_MOTION_DOT":2.79e-6,"MEAN_MOTION_DDOT":0},{"OBJECT_NAME":"SL-16 R/B","OBJECT_ID":"1988-102B","EPOCH":"2026-04-20T20:41:12.337440","MEAN_MOTION":14.16158478,"ECCENTRICITY":0.00162132,"INCLINATION":70.9996,"RA_OF_ASC_NODE":62.758,"ARG_OF_PERICENTER":301.4238,"MEAN_ANOMALY":58.5299,"EPHEMERIS_TYPE":0,"CLASSIFICATION_TYPE":"U","NORAD_CAT_ID":19650,"ELEMENT_SET_NO":999,"REV_AT_EPOCH":93286,"BSTAR":-0.00010084906,"MEAN_MOTION_DOT":-2.48e-6,"MEAN_MOTION_DDOT":0},{"OBJECT_NAME":"INTERCOSMOS 24","OBJECT_ID":"1989-080A","EPOCH":"2026-04-20T21:40:48.412704","MEAN_MOTION":12.59599169,"ECCENTRICITY":0.11874094,"INCLINATION":82.6032,"RA_OF_ASC_NODE":76.9098,"ARG_OF_PERICENTER":194.7822,"MEAN_ANOMALY":161.5534,"EPHEMERIS_TYPE":0,"CLASSIFICATION_TYPE":"U","NORAD_CAT_ID":20261,"ELEMENT_SET_NO":999,"REV_AT_EPOCH":67211,"BSTAR":3.9289978e-5,"MEAN_MOTION_DOT":1.49e-6,"MEAN_MOTION_DDOT":0},{"OBJECT_NAME":"SL-14 R/B","OBJECT_ID":"1989-080C","EPOCH":"2026-04-20T01:59:58.153344","MEAN_MOTION":12.50526209,"ECCENTRICITY":0.12309777,"INCLINATION":82.5919,"RA_OF_ASC_NODE":146.6233,"ARG_OF_PERICENTER":90.185,"MEAN_ANOMALY":283.9987,"EPHEMERIS_TYPE":0,"CLASSIFICATION_TYPE":"U","NORAD_CAT_ID":20262,"ELEMENT_SET_NO":999,"REV_AT_EPOCH":66532,"BSTAR":6.127593e-5,"MEAN_MOTION_DOT":2.37e-6,"MEAN_MOTION_DDOT":0},{"OBJECT_NAME":"DELTA 1 R/B","OBJECT_ID":"1989-089B","EPOCH":"2026-04-20T19:59:59.356896","MEAN_MOTION":14.50694447,"ECCENTRICITY":0.00687612,"INCLINATION":97.0669,"RA_OF_ASC_NODE":311.5579,"ARG_OF_PERICENTER":350.6766,"MEAN_ANOMALY":9.315,"EPHEMERIS_TYPE":0,"CLASSIFICATION_TYPE":"U","NORAD_CAT_ID":20323,"ELEMENT_SET_NO":999,"REV_AT_EPOCH":90184,"BSTAR":4.8044547e-5,"MEAN_MOTION_DOT":1.59e-6,"MEAN_MOTION_DDOT":0},{"OBJECT_NAME":"ARIANE 40 R/B","OBJECT_ID":"1990-005H","EPOCH":"2026-04-20T22:11:35.895264","MEAN_MOTION":14.39896451,"ECCENTRICITY":0.0011358,"INCLINATION":98.3005,"RA_OF_ASC_NODE":170.3098,"ARG_OF_PERICENTER":80.2434,"MEAN_ANOMALY":280.0037,"EPHEMERIS_TYPE":0,"CLASSIFICATION_TYPE":"U","NORAD_CAT_ID":20443,"ELEMENT_SET_NO":999,"REV_AT_EPOCH":89888,"BSTAR":5.9587119e-5,"MEAN_MOTION_DOT":1.45e-6,"MEAN_MOTION_DDOT":0},{"OBJECT_NAME":"DELTA 2 R/B(1)","OBJECT_ID":"1990-008B","EPOCH":"2026-04-20T20:04:35.743584","MEAN_MOTION":15.61400288,"ECCENTRICITY":0.00755965,"INCLINATION":35.6023,"RA_OF_ASC_NODE":257.068,"ARG_OF_PERICENTER":294.5277,"MEAN_ANOMALY":64.7594,"EPHEMERIS_TYPE":0,"CLASSIFICATION_TYPE":"U","NORAD_CAT_ID":20453,"ELEMENT_SET_NO":999,"REV_AT_EPOCH":93271,"BSTAR":0.00058168353,"MEAN_MOTION_DOT":0.00059632,"MEAN_MOTION_DDOT":0},{"OBJECT_NAME":"COSMOS 2058","OBJECT_ID":"1990-010A","EPOCH":"2026-04-20T22:48:23.171616","MEAN_MOTION":15.11674938,"ECCENTRICITY":0.00092823,"INCLINATION":82.4705,"RA_OF_ASC_NODE":5.7917,"ARG_OF_PERICENTER":178.8172,"MEAN_ANOMALY":181.3082,"EPHEMERIS_TYPE":0,"CLASSIFICATION_TYPE":"U","NORAD_CAT_ID":20465,"ELEMENT_SET_NO":999,"REV_AT_EPOCH":94862,"BSTAR":0.00011526604,"MEAN_MOTION_DOT":1.991e-5,"MEAN_MOTION_DDOT":0},{"OBJECT_NAME":"SL-14 R/B","OBJECT_ID":"1990-010B","EPOCH":"2026-04-20T08:50:29.983776","MEAN_MOTION":14.83607804,"ECCENTRICITY":0.00203795,"INCLINATION":82.5034,"RA_OF_ASC_NODE":228.235,"ARG_OF_PERICENTER":158.6034,"MEAN_ANOMALY":201.6037,"EPHEMERIS_TYPE":0,"CLASSIFICATION_TYPE":"U","NORAD_CAT_ID":20466,"ELEMENT_SET_NO":999,"REV_AT_EPOCH":93466,"BSTAR":3.3738723e-5,"MEAN_MOTION_DOT":3.03e-6,"MEAN_MOTION_DDOT":0},{"OBJECT_NAME":"SL-14 R/B","OBJECT_ID":"1990-018B","EPOCH":"2026-04-20T21:34:09.543648","MEAN_MOTION":14.82181911,"ECCENTRICITY":0.00150951,"INCLINATION":82.5238,"RA_OF_ASC_NODE":183.6509,"ARG_OF_PERICENTER":316.8424,"MEAN_ANOMALY":43.1606,"EPHEMERIS_TYPE":0,"CLASSIFICATION_TYPE":"U","NORAD_CAT_ID":20511,"ELEMENT_SET_NO":999,"REV_AT_EPOCH":92883,"BSTAR":2.9068996e-5,"MEAN_MOTION_DOT":2.55e-6,"MEAN_MOTION_DDOT":0},{"OBJECT_NAME":"HST","OBJECT_ID":"1990-037B","EPOCH":"2026-04-20T16:38:44.151648","MEAN_MOTION":15.30092184,"ECCENTRICITY":0.00018497,"INCLINATION":28.4731,"RA_OF_ASC_NODE":113.3167,"ARG_OF_PERICENTER":219.7473,"MEAN_ANOMALY":140.2988,"EPHEMERIS_TYPE":0,"CLASSIFICATION_TYPE":"U","NORAD_CAT_ID":20580,"ELEMENT_SET_NO":999,"REV_AT_EPOCH":77975,"BSTAR":0.00015085864,"MEAN_MOTION_DOT":4.75e-5,"MEAN_MOTION_DDOT":0},{"OBJECT_NAME":"SL-16 R/B","OBJECT_ID":"1990-046B","EPOCH":"2026-04-20T14:49:00.452640","MEAN_MOTION":14.15015105,"ECCENTRICITY":0.00162802,"INCLINATION":70.9993,"RA_OF_ASC_NODE":209.8542,"ARG_OF_PERICENTER":244.4364,"MEAN_ANOMALY":115.5076,"EPHEMERIS_TYPE":0,"CLASSIFICATION_TYPE":"U","NORAD_CAT_ID":20625,"ELEMENT_SET_NO":999,"REV_AT_EPOCH":85432,"BSTAR":-4.6612632e-5,"MEAN_MOTION_DOT":-1.38e-6,"MEAN_MOTION_DDOT":0},{"OBJECT_NAME":"COSMOS 2084","OBJECT_ID":"1990-055A","EPOCH":"2026-04-20T11:50:15.907488","MEAN_MOTION":15.05882456,"ECCENTRICITY":0.00104622,"INCLINATION":62.7892,"RA_OF_ASC_NODE":192.9711,"ARG_OF_PERICENTER":206.8642,"MEAN_ANOMALY":153.1918,"EPHEMERIS_TYPE":0,"CLASSIFICATION_TYPE":"U","NORAD_CAT_ID":20663,"ELEMENT_SET_NO":999,"REV_AT_EPOCH":94261,"BSTAR":0.00010871988,"MEAN_MOTION_DOT":1.386e-5,"MEAN_MOTION_DDOT":0},{"OBJECT_NAME":"SL-6 R/B(2)","OBJECT_ID":"1990-055D","EPOCH":"2026-04-20T22:23:03.571872","MEAN_MOTION":15.03776057,"ECCENTRICITY":0.00316455,"INCLINATION":62.7804,"RA_OF_ASC_NODE":110.1735,"ARG_OF_PERICENTER":355.9869,"MEAN_ANOMALY":4.0971,"EPHEMERIS_TYPE":0,"CLASSIFICATION_TYPE":"U","NORAD_CAT_ID":20666,"ELEMENT_SET_NO":999,"REV_AT_EPOCH":94454,"BSTAR":0.00011567065,"MEAN_MOTION_DOT":1.408e-5,"MEAN_MOTION_DDOT":0},{"OBJECT_NAME":"SL-8 R/B","OBJECT_ID":"1990-078B","EPOCH":"2026-04-20T13:21:47.453472","MEAN_MOTION":14.90189845,"ECCENTRICITY":0.03564677,"INCLINATION":82.9057,"RA_OF_ASC_NODE":213.6233,"ARG_OF_PERICENTER":232.5556,"MEAN_ANOMALY":124.2745,"EPHEMERIS_TYPE":0,"CLASSIFICATION_TYPE":"U","NORAD_CAT_ID":20775,"ELEMENT_SET_NO":999,"REV_AT_EPOCH":81553,"BSTAR":0.00042516454,"MEAN_MOTION_DOT":0.00014451,"MEAN_MOTION_DDOT":0}]
