SL-8 R/B                
1 19257U 88053B   26110.85674979  .00000128  00000+0  50042-4 0  9998
2 19257  74.0492  34.7363 0020795 207.5329 208.8473 14.38939700982666
COSMOS 1975             
1 19573U 88093A   26110.88867351  .00004619  00000+0  16457-3 0  9994
2 19573  82.5186  75.2946 0012330  31.6295 328.5683 15.28591777 25852
SL-14 R/B               
1 19574U 88093B   26110.94906647  .00000279  00000+0  29310-4 0  9995
2 19574  82.5338   2.3842 0019115 257.5783 112.6402 14.85700219  7291
SL-16 R/B               
1 19650U 88102B   26110.86194835 -.00000248  00000+0 -10085-3 0  9996
2 19650  70.9996  62.7580 0016213 301.4238  58.5299 14.16158478932866
INTERCOSMOS 24          
1 20261U 89080A   26110.90333811  .00000149  00000+0  39290-4 0  9994
2 20261  82.6032  76.9098 1187409 194.7822 161.5534 12.59599169672114
SL-14 R/B               
1 20262U 89080C   26110.08331196  .00000237  00000+0  61276-4 0  9995
2 20262  82.5919 146.6233 1230977  90.1850 283.9987 12.50526209665325
DELTA 1 R/B             
1 20323U 89089B   26110.83332589  .00000159  00000+0  48045-4 0  9994
2 20323  97.0669 311.5579 0068761 350.6766   9.3150 14.50694447901845
ARIANE 40 R/B           
1 20443U 90005H   26110.92472101  .00000145  00000+0  59587-4 0  9990
2 20443  98.3005 170.3098 0011358  80.2434 280.0037 14.39896451898888
DELTA 2 R/B(1)          
1 20453U 90008B   26110.83652481  .00059632  00000+0  58168-3 0  9993
2 20453  35.6023 257.0680 0075596 294.5277  64.7594 15.61400288932713
COSMOS 2058             
1 20465U 90010A   26110.95026819  .00001991  00000+0  11527-3 0  9995
2 20465  82.4705   5.7917 0009282 178.8172 181.3082 15.11674938948626
SL-14 R/B               
1 20466U 90010B   26110.36840259  .00000303  00000+0  33739-4 0  9999
2 20466  82.5034 228.2350 0020379 158.6034 201.6037 14.83607804934660
SL-14 R/B               
1 20511U 90018B   26110.89872157  .00000255  00000+0  29069-4 0  9995
2 20511  82.5238 183.6509 0015095 316.8424  43.1606 14.82181911928835
HST                     
1 20580U 90037B   26110.69356657  .00004750  00000+0  15086-3 0  9999
2 20580  28.4731 113.3167 0001849 219.7473 140.2988 15.30092184779759
SL-16 R/B               
1 20625U 90046B   26110.61736635 -.00000138  00000+0 -46613-4 0  9998
2 20625  70.9993 209.8542 0016280 244.4364 115.5076 14.15015105854328
COSMOS 2084             
1 20663U 90055A   26110.49323967  .00001386  00000+0  10872-3 0  9997
2 20663  62.7892 192.9711 0010462 206.8642 153.1918 15.05882456942618
SL-6 R/B(2)             
1 20666U 90055D   26110.93268023  .00001408  00000+0  11567-3 0  9997
2 20666  62.7804 110.1735 0031645 355.9869   4.0971 15.03776057944549
SL-8 R/B                
1 20775U 90078B   26110.55679923  .00014451  00000+0  42516-3 0  9996
2 20775  82.9057 213.6233 0356467 232.5556 124.2745 14.90189845815539
